STARLINK-1470           
1 45772U 20038AU  26068.60892913  .00054678  00000+0  19687-2 0  9990
2 45772  53.0480 174.6971 0002444  12.8687 347.2373 15.28074860317065
STARLINK-35232          
1 65518U 25198AC  26068.75553993 -.00027667  00000+0 -92589-3 0  9993
2 65518  53.1592 270.4379 0000993  36.0467 324.0601 15.30185254 28630
